{"type":"Feature","properties":{"featurecla":"Range/mtn","name":"Ogo Mts.","namealt":null,"region":"Africa","subregion":null,"min_label":5.4,"max_label":10.0,"scalerank":5},
"geometry":{"type": "MultiPolygon","coordinates": [[[[51.18592485463418,11.602511716513632,62.9608],[51.174571159771261,11.550299383587827,0.0],[51.146689841185633,11.479023294793265,0.0],[51.181285026958705,11.563544012494063,0.0],[51.18592485463418,11.602511716513632,62.9608]]],
[[[51.051359770434686,11.886402677790514,0.0],[51.114623975694457,11.848716138555957,342.3262],[51.121433239383322,11.867046541090929,379.077],[51.051359770434686,11.886402677790514,0.0]]],
[[[50.498999304825844,11.806708138743048,0.0],[50.507396262555091,11.810565839633611,0.0],[50.51034165508176,11.819406548586784,0.0],[50.498999304825844,11.806708138743048,0.0]]],
[[[49.760048273877629,11.495679833265584,0.0],[49.899746868119138,11.52063587745765,0.0],[49.778941276958705,11.503973699994106,0.0],[49.760048273877629,11.495679833265584,0.0]]],
[[[49.475843269887463,11.377365182566251,0.0],[49.481333855083761,11.37830231327537,0.0],[49.481713958338929,11.378758507311247,0.0],[49.475843269887463,11.377365182566251,0.0]]],
[[[48.786246828399072,11.314791077008792,0.0],[48.938853386333705,11.285711981244134,0.0],[48.989696000205441,11.294389776613528,0.0],[49.012686346473089,11.29941642887924,0.0],[48.786246828399072,11.314791077008792,0.0]]],
[[[47.682293674303452,11.122034961576205,0.0],[47.708628776958761,11.113714910931591,0.0],[48.078990105083705,11.166632391400327,0.0],[48.098811653470335,11.175645209542623,0.0],[48.092295769146261,11.173285223431549,0.0],[47.682293674303452,11.122034961576205,0.0]]],
[[[46.368570534902261,10.722959661703655,0.0],[46.385630730083761,10.716864324994063,0.0],[46.388086986482421,10.717955916785769,0.0],[46.368570534902261,10.722959661703655,0.0]]]]}}