{"type": "Feature","id": "99?","bbox": [43.33416,11.43903,43.47316,11.53295],"geometry": {"type": "MultiPolygon","coordinates": [[[[43.46811,11.44774,3.006],[43.47316,11.4571,0.0],[43.46013,11.47077,0.0],[43.45257,11.46442,0.0],[43.44695,11.45645,0.0],[43.45379,11.4451,0.0],[43.45753,11.43903,2.85],[43.46811,11.44774,3.006]]],
[[[43.34034,11.4652,0.0],[43.35572,11.47244,0.0],[43.36223,11.4746,0.0],[43.36476,11.48823,0.0],[43.3694,11.50943,0.0],[43.36785,11.5176,0.0],[43.37094,11.52749,0.0],[43.36883,11.53295,0.0],[43.36459,11.52823,0.0],[43.36191,11.5041,0.0],[43.36101,11.49584,0.0],[43.35727,11.49164,0.0],[43.35572,11.48452,0.0],[43.34946,11.47647,0.0],[43.33416,11.46711,0.0],[43.33473,11.4621,0.0],[43.34034,11.4652,0.0]]]]}
,"properties": {"ISO3166-1-Alpha-3": "SOL","country": "Somaliland","name": null,"area_km2": 11.822925,"hist_schema_id": "Elevation0-9000","hist_area_km2": {"0": 11.822925}}}