{"type":"Feature","properties":{"ISO3166-1-Alpha-3":"SOL","country":"Somaliland","id":null,"name":"Somaliland"},
"geometry":{"type": "Polygon","coordinates": [[[48.93911,11.24913,0.0],[48.92115,11.24803,0.0],[48.90406,11.24775,0.0],[48.88885,11.25056,0.0],[48.80063,11.27904,3.0463],[48.76246,11.30101,0.0],[48.72389,11.31525,0.0],[48.6548,11.33063,0.0],[48.63689,11.32941,0.0],[48.58595,11.31696,0.0],[48.52198,11.31928,0.0],[48.50685,11.31354,0.0],[48.47853,11.29633,0.0],[48.44435,11.28925,0.0],[48.37306,11.28217,0.0],[48.34278,11.27546,0.0],[48.33131,11.2687,0.0],[48.31837,11.25552,0.0],[48.31495,11.24901,0.0],[48.31332,11.24201,0.0],[48.31056,11.23477,0.0],[48.30421,11.22753,0.0],[48.2942,11.2226,0.0],[48.27361,11.2204,0.0],[48.25514,11.21507,0.0],[48.24659,11.21426,0.0],[48.22934,11.2145,0.0],[48.2199,11.21113,0.0],[48.2173,11.20368,0.0],[48.21559,11.19623,0.0],[48.19581,11.18684,0.0],[48.17351,11.15713,0.0],[48.16082,11.14566,0.0],[48.13038,11.13666,0.0],[47.94825,11.12515,0.0],[47.89283,11.13255,0.0],[47.76734,11.13019,0.0],[47.71046,11.10126,0.0],[47.67774,11.10798,0.0],[47.52272,11.18696,0.0],[47.48951,11.19282,0.0],[47.43702,11.17984,0.0],[47.40594,11.18464,0.0],[47.38624,11.18012,0.0],[47.36687,11.1728,0.0],[47.26336,11.12079,0.0],[47.23878,11.10126,1.9556],[47.22674,11.09382,0.0],[47.18067,11.08047,0.0],[47.16765,11.07209,0.0],[47.13233,11.03579,0.0],[47.08277,10.99527,0.0],[47.00807,10.93895,19.4093],[46.91383,10.90546,0.0],[46.9074,10.90314,0.0],[46.89357,10.90156,0.0],[46.88649,10.89859,0.0],[46.88136,10.89313,0.0],[46.87184,10.87808,0.0],[46.86598,10.87189,0.0],[46.82195,10.85261,0.0],[46.78224,10.82172,0.0],[46.6941,10.78193,0.0],[46.65968,10.75434,0.0],[46.64625,10.74775,0.0],[46.62916,10.74506,0.0],[46.58872,10.74331,0.0],[46.56072,10.73168,0.0],[46.52768,10.72622,0.0],[46.49985,10.70848,0.0],[46.48243,10.70136,0.0],[46.44776,10.6931,0.0],[46.4087,10.6916,0.0],[46.37013,10.69684,0.0],[46.33513,10.7097,0.0],[46.30714,10.73102,0.0],[46.26319,10.77684,0.0],[46.23756,10.79243,0.0],[46.20737,10.79621,0.0],[46.13722,10.77631,0.0],[46.10222,10.77066,0.0],[46.06373,10.77879,0.0],[46.04762,10.78531,0.0],[46.01254,10.79475,0.0],[45.97755,10.79914,0.0],[45.88445,10.84121,0.0],[45.86817,10.84138,0.0],[45.87233,10.82347,2.3941],[45.85564,10.82396,0.8426],[45.84669,10.83226,0.6541],[45.84018,10.84467,0.0],[45.83131,10.85761,0.0],[45.81691,10.86921,0.0],[45.80274,10.87531,0.0],[45.78736,10.87775,0.0],[45.7693,10.87812,0.0],[45.75359,10.87173,0.0],[45.73797,10.84357,0.0],[45.72462,10.83714,0.0],[45.70639,10.83283,0.0],[45.69459,10.82225,0.0],[45.68491,10.80891,0.0],[45.67311,10.79621,0.0],[45.66228,10.79059,0.0],[45.58611,10.76586,0.0],[45.57301,10.75812,0.0],[45.54298,10.72167,0.0],[45.51661,10.70197,0.0],[45.48707,10.68472,0.3302],[45.44532,10.66779,0.0],[45.40919,10.65949,0.0],[45.39243,10.65839,1.4173],[45.37322,10.66242,0.0],[45.35475,10.66885,0.0],[45.33725,10.67084,0.0],[45.32057,10.6621,0.0],[45.25229,10.60053,0.0],[45.15724,10.54108,0.0],[45.12672,10.53197,0.0],[45.11134,10.52558,0.0],[45.00148,10.46039,0.0],[44.98797,10.46039,0.0],[44.99415,10.44269,0.0],[44.96201,10.4158,0.0],[44.89937,10.41181,0.0],[44.85478,10.41453,0.0],[44.79032,10.42348,0.0],[44.75066,10.42787,0.0],[44.72106,10.41938,0.0],[44.66186,10.40241,0.0],[44.62733,10.39061,0.0],[44.58615,10.38358,0.0],[44.54142,10.39274,0.0],[44.46526,10.40148,0.0],[44.3892,10.39721,0.0],[44.34755,10.41451,0.0],[44.30372,10.43985,0.0],[44.27426,10.45673,0.0],[44.14959,10.55915,0.0],[44.0975,10.58926,0.0],[44.02817,10.65217,0.0],[43.92213,10.72419,0.0],[43.8296,10.80296,0.0],[43.75563,10.89423,0.0],[43.65895,10.98798,0.0],[43.61744,11.07079,0.0],[43.59164,11.10749,0.0],[43.58318,11.13516,0.0],[43.56821,11.15542,0.0],[43.563,11.17031,0.0],[43.55909,11.17601,0.0],[43.55193,11.17984,0.6509],[43.53566,11.18374,0.0],[43.52931,11.18659,0.0],[43.50636,11.20897,2.0926],[43.48813,11.23892,4.2392],[43.47901,11.2718,3.0975],[43.4944,11.36473,0.0],[43.48943,11.38093,0.0],[43.4782,11.37995,0.0],[43.46632,11.36791,0.0],[43.45973,11.35106,1.2542],[43.44337,11.35956,1.8671],[43.41383,11.38093,1.8956],[43.39422,11.3852,0.7689],[43.37599,11.39159,1.9781],[43.35239,11.41975,0.0],[43.33961,11.42617,2.0808],[43.32008,11.44611,0.0],[43.29713,11.48225,0.0],[43.28273,11.49893,0.0],[43.28834,11.46035,2.1309],[43.26694,11.46235,0.0],[43.2527,11.47309,0.0],[43.24073,11.48786,0.0],[43.18881,11.40776,110.131],[42.92372,10.99879,477.5784],[42.91131,10.97737,574.0984],[42.90118,10.93659,629.015],[42.89354,10.91967,525.7896],[42.87679,10.90574,576.5787],[42.83483,10.88841,661.8018],[42.81943,10.87257,564.1031],[42.81158,10.85262,568.6343],[42.80765,10.83611,565.3734],[42.80124,10.82079,564.6193],[42.78564,10.80441,571.2087],[42.74988,10.77583,619.6025],[42.73809,10.75978,651.7777],[42.72859,10.7355,669.4186],[42.71897,10.69485,690.6864],[42.71164,10.67516,724.8096],[42.69965,10.65855,727.0627],[42.68022,10.64767,680.2044],[42.66027,10.64163,694.4803],[42.64725,10.63222,711.2213],[42.64859,10.61103,739.4033],[42.66854,10.56623,755.568],[42.6952,10.52471,843.6155],[42.75039,10.47164,1097.9637],[42.76579,10.45195,1152.2478],[42.77664,10.42461,877.9296],[42.78946,10.33332,1093.8369],[42.80817,10.26912,1090.0986],[42.83628,10.20809,1334.6725],[42.86232,10.17716,1296.3795],[42.95824,10.11556,1739.6379],[42.9819,10.09163,1548.9136],[42.99989,10.06197,1570.2504],[43.0126,10.02929,1516.1174],[43.02076,9.99642,1475.4095],[43.03988,9.94999,1356.3217],[43.06769,9.92252,1370.6804],[43.10427,9.90792,1436.2427],[43.14985,9.89999,1844.0548],[43.18721,9.88333,1567.4357],[43.20633,9.85121,1540.8123],[43.23527,9.69179,1643.8491],[43.24881,9.65233,1607.5486],[43.27067,9.62835,1586.7941],[43.2977,9.62153,1573.9777],[43.30597,9.61755,1569.9915],[43.31558,9.60766,1558.6702],[43.32509,9.5859,1554.9884],[43.33175,9.57508,1550.7004],[43.34136,9.56639,1545.4463],[43.36152,9.55316,1535.4236],[43.37066,9.54422,1529.6104],[43.39335,9.49893,1516.2327],[43.39945,9.48095,1512.9297],[43.40198,9.44741,1511.9971],[43.40632,9.42865,1509.6379],[43.41903,9.41302,1502.5784],[43.47123,9.38201,1482.3959],[43.54823,9.33607,1447.4438],[43.56683,9.33432,1437.8538],[43.59122,9.34359,1424.7112],[43.60724,9.34462,1419.8403],[43.6215,9.3369,1415.145],[43.69845,9.26716,1420.2971],[43.78759,9.1867,1405.2399],[43.91492,9.07149,1329.9585],[43.98479,9.00831,1327.3856],[44.02386,8.98553,1325.1443],[44.10406,8.95922,1295.3127],[44.19222,8.93028,1260.7844],[44.28038,8.9014,1221.9393],[44.36854,8.87246,1189.7351],[44.4567,8.84354,1164.8722],[44.54475,8.81461,1139.9135],[44.63302,8.78572,1115.049],[44.72107,8.75678,1089.7793],[44.80923,8.72784,1063.4767],[44.89729,8.69893,1039.1643],[44.98555,8.67004,1010.2402],[45.07356,8.64115,983.9382],[45.16177,8.61214,951.4834],[45.24988,8.58328,915.6302],[45.33809,8.55441,896.2439],[45.42615,8.52548,857.3831],[45.51441,8.49654,835.7864],[45.51446,8.49654,835.7864],[45.59844,8.46842,825.8156],[45.68236,8.44031,797.6538],[45.76638,8.41223,771.6589],[45.8502,8.38411,753.3499],[45.93413,8.356,725.3536],[46.01805,8.32789,701.2777],[46.10192,8.29973,684.2673],[46.18589,8.27164,688.3069],[46.26982,8.24355,682.7941],[46.35384,8.21547,656.7449],[46.43771,8.18736,651.343],[46.52169,8.15924,656.1045],[46.60571,8.13113,644.36],[46.68953,8.10297,650.6416],[46.77356,8.07491,634.2501],[46.85738,8.04675,633.0186],[46.92053,8.02561,616.8789],[46.97923,7.99657,625.7438],[47.06811,7.99652,639.4842],[47.21059,7.99652,655.4069],[47.36608,7.99652,652.6213],[47.52359,7.99652,652.5765],[47.65392,7.99652,681.3223],[47.8367,7.99652,714.1296],[47.97917,7.99657,665.2429],[48.03911,8.08749,738.9941],[48.09906,8.17852,782.0041],[48.159,8.26942,671.6111],[48.21915,8.36032,575.7601],[48.2791,8.45116,515.5031],[48.33915,8.54209,477.7992],[48.3993,8.63312,444.7579],[48.45924,8.72389,449.9284],[48.51919,8.81492,468.742],[48.57918,8.90584,515.3519],[48.63934,8.99666,570.4241],[48.69923,9.08769,712.0945],[48.75922,9.17851,850.2709],[48.81932,9.26938,908.7652],[48.87911,9.36031,884.6313],[48.93911,9.45123,864.3436],[48.93911,9.5627,872.8751],[48.93911,9.5636,872.8751],[48.93911,9.676,894.1598],[48.93911,9.78842,911.0583],[48.93911,9.90071,947.223],[48.93911,10.01303,990.28],[48.93911,10.12543,952.316],[48.93911,10.2378,849.7495],[48.93911,10.35012,768.9565],[48.93911,10.46257,752.8497],[48.93911,10.57494,726.0179],[48.93911,10.68733,706.7803],[48.93911,10.7996,775.8203],[48.93911,10.91202,969.4432],[48.93911,11.02437,964.1531],[48.93911,11.13674,93.0652],[48.93911,11.24913,0.0]]]}}